XRISM                   
1 57800U 23137A   23283.35846918  .00007665  00000+0  62405-3 0  9991
2 57800  31.0028 165.3346 0010403 248.2509 111.7019 14.98178974  5005
